{
    "links": {
        "self": "http://www.neowsapp.com/rest/v1/neo/3787620?api_key=iIulBulltgU6a56xZRHN4H3l9WmuAYTsLGpBGhQ2"
    },
    "id": "3787620",
    "neo_reference_id": "3787620",
    "name": "(2017 UN2)",
    "designation": "2017 UN2",
    "nasa_jpl_url": "http://ssd.jpl.nasa.gov/sbdb.cgi?sstr=3787620",
    "absolute_magnitude_h": 28.2,
    "estimated_diameter": {
        "kilometers": {
            "estimated_diameter_min": 0.0060891262,
            "estimated_diameter_max": 0.0136157002
        },
        "meters": {
            "estimated_diameter_min": 6.0891262211,
            "estimated_diameter_max": 13.6157001539
        },
        "miles": {
            "estimated_diameter_min": 0.0037836064,
            "estimated_diameter_max": 0.0084604012
        },
        "feet": {
            "estimated_diameter_min": 19.9774488711,
            "estimated_diameter_max": 44.6709336928
        }
    },
    "is_potentially_hazardous_asteroid": false,
    "close_approach_data": [
        {
            "close_approach_date": "2017-10-14",
            "close_approach_date_full": "2017-Oct-14 17:05",
            "epoch_date_close_approach": 1508000700000,
            "relative_velocity": {
                "kilometers_per_second": "6.8940669883",
                "kilometers_per_hour": "24818.6411577004",
                "miles_per_hour": "15421.3384460167"
            },
            "miss_distance": {
                "astronomical": "0.0061029656",
                "lunar": "2.3740536184",
                "kilometers": "912990.654443272",
                "miles": "567306.0863382736"
            },
            "orbiting_body": "Earth"
        },
        {
            "close_approach_date": "2017-10-14",
            "close_approach_date_full": "2017-Oct-14 23:53",
            "epoch_date_close_approach": 1508025180000,
            "relative_velocity": {
                "kilometers_per_second": "7.5442142954",
                "kilometers_per_hour": "27159.1714635113",
                "miles_per_hour": "16875.6529574246"
            },
            "miss_distance": {
                "astronomical": "0.0072379723",
                "lunar": "2.8155712247",
                "kilometers": "1082785.239199001",
                "miles": "672811.5489521738"
            },
            "orbiting_body": "Moon"
        }
    ],
    "orbital_data": {
        "orbit_id": "1",
        "orbit_determination_date": "2017-10-22 07:42:07",
        "first_observation_date": "2017-10-16",
        "last_observation_date": "2017-10-20",
        "data_arc_in_days": 4,
        "observations_used": 18,
        "orbit_uncertainty": "7",
        "minimum_orbit_intersection": ".0082047",
        "jupiter_tisserand_invariant": "3.636",
        "epoch_osculation": "2459000.5",
        "eccentricity": ".5064908855327823",
        "semi_major_axis": "2.033885727630298",
        "inclination": "2.202381089119964",
        "ascending_node_longitude": "27.16925428336874",
        "orbital_period": "1059.468990738075",
        "perihelion_distance": "1.003741144370341",
        "perihelion_argument": "352.2984196626509",
        "aphelion_distance": "3.064030310890255",
        "perihelion_time": "2459098.480428221939",
        "mean_anomaly": "326.7069499265615",
        "mean_motion": ".3397928614684675",
        "equinox": "J2000",
        "orbit_class": {
            "orbit_class_type": "APO",
            "orbit_class_description": "Near-Earth asteroid orbits which cross the Earth’s orbit similar to that of 1862 Apollo",
            "orbit_class_range": "a (semi-major axis) > 1.0 AU; q (perihelion) < 1.017 AU"
        }
    },
    "is_sentry_object": false
}